NORAD_CAT_ID,OBJECT_NAME,OBJECT_TYPE,EPOCH,MEAN_MOTION,ECCENTRICITY,INCLINATION,RA_OF_ASC_NODE,ARG_OF_PERICENTER,MEAN_ANOMALY,BSTAR,MEAN_MOTION_DOT,MEAN_MOTION_DDOT,TLE_LINE0,TLE_LINE1,TLE_LINE2,SEMIMAJOR_AXIS,PERIOD,APOGEE,PERIGEE,DECAYED
53936.0,STARLINK-4791,PAYLOAD,2023-09-20 14:09:56,15.08828783,0.0001176,53.2176,24.0473,85.2364,274.8762,-0.00017712,-3.105e-05,0.0,0 STARLINK-4791,1 53936U 22119BC  23263.59023893 -.00003105  00000-0 -17712-3 0  9998,2 53936  53.2176  24.0473 0001176  85.2364 274.8762 15.08828783 56013,6917.915,95.438,540.593,538.966,0.0
53936.0,STARLINK-4791,PAYLOAD,2023-09-20 15:45:19,15.08829327,0.0001033,53.2174,23.7497,103.6091,256.5016,-0.00015484,-2.75e-05,0.0,0 STARLINK-4791,1 53936U 22119BC  23263.65647805 -.00002750  00000-0 -15484-3 0  9999,2 53936  53.2174  23.7497 0001033 103.6091 256.5016 15.08829327 55593,6917.913,95.438,540.493,539.063,0.0
53936.0,STARLINK-4791,PAYLOAD,2023-09-21 12:25:21,15.08839908,0.0001282,53.2179,19.8847,76.0498,284.0637,0.00034596,5.222e-05,0.0,0 STARLINK-4791,1 53936U 22119BC  23264.51760490  .00005222  00000-0  34596-3 0  9991,2 53936  53.2179  19.8847 0001282  76.0498 284.0637 15.08839908 56157,6917.881,95.438,540.633,538.859,0.0
53936.0,STARLINK-4791,PAYLOAD,2023-09-21 14:00:44,15.08840525,0.0001236,53.2172,19.5876,72.669,287.4438,0.00065443,0.00010143,0.0,0 STARLINK-4791,1 53936U 22119BC  23264.58384633  .00010143  00000-0  65443-3 0  9992,2 53936  53.2172  19.5876 0001236  72.6690 287.4438 15.08840525 55730,6917.879,95.438,540.599,538.889,0.0
53936.0,STARLINK-4791,PAYLOAD,2023-09-22 07:29:58,15.08847892,0.0001546,53.2171,16.318,59.6372,300.4773,0.00052607,8.096e-05,0.0,0 STARLINK-4791,1 53936U 22119BC  23265.31248727  .00008096  00000-0  52607-3 0  9999,2 53936  53.2171  16.3180 0001546  59.6372 300.4773 15.08847892 55842,6917.856,95.437,540.791,538.652,0.0
53936.0,STARLINK-4791,PAYLOAD,2023-09-22 13:51:31,15.08856274,0.0001602,53.2171,15.1287,58.4896,301.6252,0.00064816,0.00010047,0.0,0 STARLINK-4791,1 53936U 22119BC  23265.57744463  .00010047  00000-0  64816-3 0  9999,2 53936  53.2171  15.1287 0001602  58.4896 301.6252 15.08856274 56310,6917.831,95.437,540.804,538.587,0.0
53936.0,STARLINK-4791,PAYLOAD,2023-09-23 12:06:54,15.08847642,0.0001504,53.2181,10.9651,88.1819,271.9346,0.00015866,2.239e-05,0.0,0 STARLINK-4791,1 53936U 22119BC  23266.50480089  .00002239  00000-0  15866-3 0  9999,2 53936  53.2181  10.9651 0001504  88.1819 271.9346 15.08847642 56025,6917.857,95.437,540.762,538.682,0.0
53936.0,STARLINK-4791,PAYLOAD,2023-09-24 10:22:18,15.08845685,0.000142,53.219,6.8006,98.1461,261.9692,1.6811e-05,-2e-07,0.0,0 STARLINK-4791,1 53936U 22119BC  23267.43215934 -.00000020  00000-0  16811-4 0  9996,2 53936  53.2190   6.8006 0001420  98.1461 261.9692 15.08845685 56167,6917.863,95.437,540.71,538.746,0.0
53936.0,STARLINK-4791,PAYLOAD,2023-09-24 13:33:04,15.08847782,0.0001448,53.2188,6.2064,93.5606,266.5552,5.1921e-05,5.39e-06,0.0,0 STARLINK-4791,1 53936U 22119BC  23267.56463806  .00000539  00000-0  51921-4 0  9998,2 53936  53.2188   6.2064 0001448  93.5606 266.5552 15.08847782 56618,6917.857,95.437,540.723,538.72,0.0
53936.0,STARLINK-4791,PAYLOAD,2023-09-24 16:43:50,15.08850585,0.0001354,53.2176,5.6119,83.9218,276.1928,0.00012077,1.635e-05,0.0,0 STARLINK-4791,1 53936U 22119BC  23267.69711601  .00001635  00000-0  12077-3 0  9997,2 53936  53.2176   5.6119 0001354  83.9218 276.1928 15.08850585 56638,6917.848,95.437,540.65,538.776,0.0
53936.0,STARLINK-4791,PAYLOAD,2023-09-25 13:23:51,15.08852423,0.0001449,53.2189,1.7477,95.8091,264.3066,0.00025558,3.783e-05,0.0,0 STARLINK-4791,1 53936U 22119BC  23268.55823596  .00003783  00000-0  25558-3 0  9994,2 53936  53.2189   1.7477 0001449  95.8091 264.3066 15.08852423 56761,6917.842,95.437,540.71,538.705,0.0
53936.0,STARLINK-4791,PAYLOAD,2023-09-26 10:03:53,15.08835312,0.0001316,53.2174,357.8799,86.5327,273.5816,-6.2011e-05,-1.275e-05,0.0,0 STARLINK-4791,1 53936U 22119BC  23269.41936555 -.00001275  00000-0 -62011-4 0  9992,2 53936  53.2174 357.8799 0001316  86.5327 273.5816 15.08835312 56469,6917.895,95.438,540.67,538.849,0.0
53936.0,STARLINK-4791,PAYLOAD,2023-09-26 11:39:16,15.0883607,0.0001313,53.2175,357.5826,86.0217,274.0925,-4.4356e-05,-9.94e-06,0.0,0 STARLINK-4791,1 53936U 22119BC  23269.48560551 -.00000994  00000-0 -44356-4 0  9997,2 53936  53.2175 357.5826 0001313  86.0217 274.0925 15.08836070 56906,6917.892,95.438,540.666,538.849,0.0
53936.0,STARLINK-4791,PAYLOAD,2023-09-27 13:05:26,15.08844982,0.0001428,53.2172,352.8245,87.7907,272.3249,0.00021305,3.105e-05,0.0,0 STARLINK-4791,1 53936U 22119BC  23270.54544592  .00003105  00000-0  21305-3 0  9996,2 53936  53.2172 352.8245 0001428  87.7907 272.3249 15.08844982 57066,6917.865,95.437,540.718,538.742,0.0
53936.0,STARLINK-4791,PAYLOAD,2023-09-28 11:20:50,15.08839375,0.0001518,53.2172,348.6625,72.1273,287.9885,0.00016624,2.359e-05,0.0,0 STARLINK-4791,1 53936U 22119BC  23271.47281249  .00002359  00000-0  16624-3 0  9994,2 53936  53.2172 348.6625 0001518  72.1273 287.9885 15.08839375 56770,6917.882,95.438,540.797,538.697,0.0
53936.0,STARLINK-4791,PAYLOAD,2023-09-28 12:56:14,15.08841622,0.0001592,53.2174,348.3648,70.9598,289.1567,0.00021527,3.14e-05,0.0,0 STARLINK-4791,1 53936U 22119BC  23271.53905228  .00003140  00000-0  21527-3 0  9998,2 53936  53.2174 348.3648 0001592  70.9598 289.1567 15.08841622 57211,6917.875,95.437,540.842,538.639,0.0
53936.0,STARLINK-4791,PAYLOAD,2023-09-29 11:11:38,15.08842095,0.0001798,53.2179,344.2053,68.3678,291.7505,0.00011723,1.578e-05,0.0,0 STARLINK-4791,1 53936U 22119BC  23272.46641517  .00001578  00000-0  11723-3 0  9999,2 53936  53.2179 344.2053 0001798  68.3678 291.7505 15.08842095 57350,6917.874,95.437,540.983,538.495,0.0
53936.0,STARLINK-4791,PAYLOAD,2023-09-29 23:54:42,15.08851404,0.0001586,53.2167,341.8246,78.1816,281.9354,0.00037602,5.703e-05,0.0,0 STARLINK-4791,1 53936U 22119BC  23272.99633048  .00005703  00000-0  37602-3 0  9995,2 53936  53.2167 341.8246 0001586  78.1816 281.9354 15.08851404 57001,6917.846,95.437,540.808,538.613,0.0
53936.0,STARLINK-4791,PAYLOAD,2023-10-01 10:53:11,15.0885307,0.0001553,53.2167,335.2808,92.1512,267.9658,0.00022661,3.322e-05,0.0,0 STARLINK-4791,1 53936U 22119BC  23274.45360188  .00003322  00000-0  22661-3 0  9994,2 53936  53.2167 335.2808 0001553  92.1512 267.9658 15.08853070 57221,6917.84,95.437,540.78,538.631,0.0
53936.0,STARLINK-4791,PAYLOAD,2023-10-01 14:03:57,15.08851258,0.0001603,53.218,334.6834,99.6758,260.4415,0.00014941,2.091e-05,0.0,0 STARLINK-4791,1 53936U 22119BC  23274.58608117  .00002091  00000-0  14941-3 0  9999,2 53936  53.2180 334.6834 0001603  99.6758 260.4415 15.08851258 57672,6917.846,95.437,540.82,538.602,0.0
53936.0,STARLINK-4791,PAYLOAD,2023-10-02 10:43:59,15.08830287,0.0001617,53.2165,330.8217,83.3106,276.807,-9.9414e-05,-1.869e-05,0.0,0 STARLINK-4791,1 53936U 22119BC  23275.44721361 -.00001869  00000-0 -99414-4 0  9995,2 53936  53.2165 330.8217 0001617  83.3106 276.8070 15.08830287 57374,6917.91,95.438,540.894,538.656,0.0
53936.0,STARLINK-4791,PAYLOAD,2023-10-02 20:16:18,15.0883584,0.0001608,53.2167,329.0374,82.4039,277.7136,0.00011034,1.468e-05,0.0,0 STARLINK-4791,1 53936U 22119BC  23275.84465473  .00001468  00000-0  11034-3 0  9992,2 53936  53.2167 329.0374 0001608  82.4039 277.7136 15.08835840 57862,6917.893,95.438,540.871,538.646,0.0
53936.0,STARLINK-4791,PAYLOAD,2023-10-03 02:37:50,15.08841427,0.0001509,53.2164,327.8472,79.1528,280.9634,0.00024025,3.538e-05,0.0,0 STARLINK-4791,1 53936U 22119BC  23276.10961475  .00003538  00000-0  24025-3 0  9999,2 53936  53.2164 327.8472 0001509  79.1528 280.9634 15.08841427 57474,6917.876,95.437,540.785,538.697,0.0
53936.0,STARLINK-4791,PAYLOAD,2023-10-03 08:59:23,15.08850086,0.0001563,53.2164,326.6582,77.0498,283.0668,0.00074852,0.00011648,0.0,0 STARLINK-4791,1 53936U 22119BC  23276.37457483  .00011648  00000-0  74852-3 0  9991,2 53936  53.2164 326.6582 0001563  77.0498 283.0668 15.08850086 57940,6917.85,95.437,540.796,538.633,0.0
53936.0,STARLINK-4791,PAYLOAD,2023-10-04 04:04:00,15.08840424,0.000162,53.2165,323.0899,87.3455,272.7723,0.00015102,2.116e-05,0.0,0 STARLINK-4791,1 53936U 22119BC  23277.16945587  .00002116  00000-0  15102-3 0  9999,2 53936  53.2165 323.0899 0001620  87.3455 272.7723 15.08840424 57632,6917.879,95.438,540.865,538.623,0.0
53936.0,STARLINK-4791,PAYLOAD,2023-10-04 10:25:33,15.08843803,0.0001607,53.2167,321.9007,88.4779,271.6397,0.00018738,2.696e-05,0.0,0 STARLINK-4791,1 53936U 22119BC  23277.43441390  .00002696  00000-0  18738-3 0  9993,2 53936  53.2167 321.9007 0001607  88.4779 271.6397 15.08843803 58100,6917.869,95.437,540.845,538.622,0.0
53936.0,STARLINK-4791,PAYLOAD,2023-10-04 19:57:52,15.08846342,0.0001432,53.2153,320.115,75.3163,284.7988,0.00018509,2.659e-05,0.0,0 STARLINK-4791,1 53936U 22119BC  23277.83185255  .00002659  00000-0  18509-3 0  9997,2 53936  53.2153 320.1150 0001432  75.3163 284.7988 15.08846342 58161,6917.861,95.437,540.717,538.735,0.0
53936.0,STARLINK-4791,PAYLOAD,2023-10-05 10:16:20,15.08840547,0.0001833,53.2165,317.4417,77.1484,282.9713,2.6308e-05,1.31e-06,0.0,0 STARLINK-4791,1 53936U 22119BC  23278.42801678  .00000131  00000-0  26308-4 0  9997,2 53936  53.2165 317.4417 0001833  77.1484 282.9713 15.08840547 57829,6917.879,95.438,541.012,538.476,0.0
53936.0,STARLINK-4791,PAYLOAD,2023-10-05 11:51:43,15.08845841,0.0001811,53.216,317.1419,76.3297,283.7897,5.8032e-05,6.36e-06,0.0,0 STARLINK-4791,1 53936U 22119BC  23278.49425338  .00000636  00000-0  58032-4 0  9998,2 53936  53.2160 317.1419 0001811  76.3297 283.7897 15.08845841 58265,6917.863,95.437,540.98,538.475,0.0
53936.0,STARLINK-4791,PAYLOAD,2023-10-05 19:48:39,15.08839668,0.00017,53.2165,315.6548,85.6087,274.5099,8.4355e-05,1.055e-05,0.0,0 STARLINK-4791,1 53936U 22119BC  23278.82545710  .00001055  00000-0  84355-4 0  9995,2 53936  53.2165 315.6548 0001700  85.6087 274.5099 15.08839668 58311,6917.881,95.438,540.922,538.57,0.0
